satname,norad_id,inclination_deg,eccentricity,mean_motion_rev_per_day,perigee_km,apogee_km,l1,l2
STARLINK-1008,44714,53.1516,0.0002011,15.51209327,411.82834438970986,414.5598177505153,1 44714U 19074B   26177.84985909  .00077670  00000+0  13003-2 0  9991,2 44714  53.1516  22.4254 0002011 198.5459 161.5478 15.51209327365716
STARLINK-1012,44718,53.1561,0.0002116,15.51603401,410.60732839596403,413.4809330504868,1 44718U 19074F   26177.90855073  .00067016  00000+0  11088-2 0  9994,2 44718  53.1561  22.3972 0002116 209.8036 150.2854 15.51603401365713
STARLINK-1017,44723,53.0474,0.0003735,15.32831847,464.8112983605415,469.92489066614417,1 44723U 19074L   26177.85721235  .00047415  00000+0  14765-2 0  9992,2 44723  53.0474  24.2599 0003735  98.5255 261.6169 15.32831847365667
STARLINK-1020,44725,53.1562,0.0003501,15.57202001,393.38768719311975,398.1307693321487,1 44725U 19074N   26177.92908265  .00083183  00000+0  11182-2 0  9994,2 44725  53.1562  45.6148 0003501 161.7825 198.3314 15.57202001365379
STARLINK-1036,44741,53.0421,8.76e-05,15.7481901,344.55729919010446,345.7352184170477,1 44741U 19074AE  26178.00003472  .00092831  00000+0  61415-3 0  9993,2 44741  53.0421  11.9609 0000876  64.9111 297.3622 15.74819010  5839
STARLINK-1039,44744,53.0575,0.0003908,15.29904677,473.4183578621887,478.77562715073145,1 44744U 19074AH  26177.98831397  .00046213  00000+0  15767-2 0  9998,2 44744  53.0575  69.4537 0003908 107.2024 252.9403 15.29904677365043
STARLINK-1042,44747,53.0425,0.0001326,15.55001111,401.25033385548795,403.04846580872254,1 44747U 19074AL  26176.61143558  .00030507  00000+0  45227-3 0  9999,2 44747  53.0425 294.9015 0001326 119.5935 240.5207 15.55001111366838
STARLINK-1043,44748,53.0492,4.4e-06,15.63952594,376.2230455412664,376.2824841711963,1 44748U 19074AM  26177.87724844  .00041472  00000+0  43554-3 0  9996,2 44748  53.0492  23.9597 0000044 350.1458   9.9555 15.63952594365670
STARLINK-1046,44751,53.0474,0.0005737,15.574394,391.18506240836905,398.9566410974703,1 44751U 19074AQ  26177.93416765  .00106908  00000+0  14176-2 0  9990,2 44751  53.0474  46.2661 0005737 133.3853 226.7637 15.57439400365363
STARLINK-1047,44752,53.0706,0.0002841,15.34871008,459.36057809047725,463.24674827529725,1 44752U 19074AR  26177.90367775  .00010227  00000+0  30879-3 0  9991,2 44752  53.0706 354.8801 0002841 159.0906 201.0212 15.34871008366100
STARLINK-1048,44753,53.0448,0.0004661,15.69292504,357.78065375031747,364.06280429751314,1 44753U 19074AS  26177.90164064  .00060595  00000+0  50980-3 0  9996,2 44753  53.0448 354.8749 0004661 113.3436 246.8072 15.69292504366071
STARLINK-1063,44768,53.1548,0.0002042,15.51316542,411.49444204005977,414.2678938598501,1 44768U 19074BH  26177.92756541  .00064499  00000+0  10788-2 0  9999,2 44768  53.1548  63.0917 0002042 143.3176 216.7974 15.51316542365166
STARLINK-1067,44771,53.043,0.0002198,15.80243803,328.27621565620575,331.2250030492778,1 44771U 19074BL  26177.96171557  .00111084  00000+0  57537-3 0  9992,2 44771  53.0430  24.9541 0002198 247.0025 113.0764 15.80243803365667
STARLINK-1068,44772,53.0404,0.000244,15.78296212,333.6296846861451,336.9058262068029,1 44772U 19074BM  26177.92700450  .00093266  00000+0  52927-3 0  9998,2 44772  53.0404 359.0546 0002440 265.5677  94.5064 15.78296212366019
STARLINK-1114,44927,53.0385,0.0001713,15.71540486,353.3403855571205,355.6469848298684,1 44927U 20001P   26178.00003472 -.00030913  00000+0 -23254-3 0  9995,2 44927  53.0385 157.0581 0001713 106.7076 286.5826 15.71540486  5922
STARLINK-1123,44930,53.1412,0.0008283,15.60964489,379.2680284739654,390.47162558362106,1 44930U 20001S   26177.93643886  .00087003  00000+0  10123-2 0  9999,2 44930  53.1412 185.6678 0008283  16.1491 343.9786 15.60964489356761
STARLINK-1094,44941,53.1501,0.000779,15.56528134,392.43577898782587,402.992555106086,1 44941U 20001AD  26177.94658679  .00078411  00000+0  10807-2 0  9990,2 44941  53.1501 161.2341 0007790  38.8579 321.2992 15.56528134357115
STARLINK-1122,44949,53.1514,0.0006952,15.56874757,391.99853901921597,401.41828407943467,1 44949U 20001AM  26177.95543048  .00092378  00000+0  12539-2 0  9994,2 44949  53.1514 161.7781 0006952  34.8029 325.3436 15.56874757357107
STARLINK-1080,44961,53.0433,0.0002903,15.69506007,358.3543921991168,362.266734854501,1 44961U 20001AZ  26177.85973322  .00060323  00000+0  50325-3 0  9990,2 44961  53.0433 117.9644 0002903  88.3686 271.7663 15.69506007357690
STARLINK-1090,44968,53.1467,0.0005678,15.52728826,404.90909623701737,412.6162995339364,1 44968U 20001BG  26177.92589178  .00058321  00000+0  92833-3 0  9992,2 44968  53.1467 150.1727 0005678  44.0518 316.0944 15.52728826357266
STARLINK-1132,45044,53.1488,0.000408,15.58426578,389.4479435389285,394.97254689102283,1 45044U 20006A   26177.96406855  .00100028  00000+0  12802-2 0  9996,2 45044  53.1488  90.2896 0004080 120.8883 239.2532 15.58426578353888
STARLINK-1131,45047,53.1537,0.0005533,15.54634977,399.46179232928534,406.9660352504843,1 45047U 20006D   26177.18514100  .00067061  00000+0  99405-3 0  9990,2 45047  53.1537 127.3725 0005533  62.9326 297.2249 15.54634977353295
STARLINK-1134,45048,53.0229,0.0007239,15.6145988,378.54461878653456,388.334028988259,1 45048U 20006E   26177.91903597  .00040658  00000+0  47013-3 0  9995,2 45048  53.0229  72.4658 0007239 139.3422 220.8133 15.61459880354100
STARLINK-1156,45054,53.1553,0.0005288,15.36559634,452.67782614378666,459.9059181189541,1 45054U 20006L   26177.15205907  .00057445  00000+0  15847-2 0  9999,2 45054  53.1553 135.4684 0005288  45.9233 314.2205 15.36559634353175
STARLINK-1166,45060,53.0428,0.0005173,15.62484471,376.9868544177216,383.97932276137635,1 45060U 20006S   26177.91491984  .00051376  00000+0  56903-3 0  9998,2 45060  53.0428 105.4419 0005173  79.0753 281.0842 15.62484471353648
STARLINK-1169,45061,53.1539,0.0006103,15.40071873,441.7322896930946,450.061705590615,1 45061U 20006T   26177.59962414  .00053760  00000+0  13240-2 0  9999,2 45061  53.1539 131.4856 0006103  39.7601 320.3850 15.40071873353275
STARLINK-1171,45062,53.0383,0.0002035,15.77269806,336.81316132102256,339.5467023122728,1 45062U 20006U   26177.94002625  .00085239  00000+0  50720-3 0  9999,2 45062  53.0383  69.1419 0002035  80.2666 279.8584 15.77269806354151
STARLINK-1133,45064,53.1546,0.0005453,15.36590425,452.4738063167297,459.9273348712195,1 45064U 20006W   26177.96911632  .00055917  00000+0  15416-2 0  9992,2 45064  53.1546 108.4172 0005453  67.2904 292.8675 15.36590425353632
STARLINK-1167,45071,53.1542,0.0003814,15.39050509,446.3119265681271,451.51960241688175,1 45071U 20006AD  26177.09617542  .00045224  00000+0  11550-2 0  9992,2 45071  53.1542 111.2512 0003814  36.9245 323.2022 15.39050509353515
STARLINK-1168,45072,53.1556,0.0004796,15.36835983,452.1951514702414,458.74994975118716,1 45072U 20006AE  26177.81570462  .00038429  00000+0  10569-2 0  9990,2 45072  53.1556 109.2998 0004796  61.9001 298.2487 15.36835983353604
STARLINK-1172,45074,53.1532,0.0004205,15.40151441,442.7925572672102,448.53137219654946,1 45074U 20006AG  26177.95044223  .00051400  00000+0  12638-2 0  9991,2 45074  53.1532 106.4225 0004205  46.0113 314.1238 15.40151441353657
STARLINK-1153,45080,53.1566,0.0005264,15.39179381,444.941123433774,452.1282433820661,1 45080U 20006AN  26177.53293309  .00045613  00000+0  11597-2 0  9995,2 45080  53.1566 109.0987 0005264  30.8114 329.3199 15.39179381353580
STARLINK-1151,45081,53.0464,0.000371,15.92960518,291.5278871637556,296.4786152301431,1 45081U 20006AP  26178.00003472  .00233205  31712-4  66150-3 0  9990,2 45081  53.0464  55.5030 0003710 242.8347 198.2417 15.92960518  6016
STARLINK-1185,45087,53.157,0.000489,15.4809829,418.9641380981302,425.61495526078215,1 45087U 20006AV  26177.95654424  .00061712  00000+0  11564-2 0  9999,2 45087  53.1570  86.0415 0004890  83.6824 276.4741 15.48098290353944
STARLINK-1183,45088,53.1554,0.0004845,15.36449515,453.30698317255246,459.92986117663986,1 45088U 20006AW  26177.92928644  .00048000  00000+0  13323-2 0  9995,2 45088  53.1554  93.4255 0004845  83.9580 276.1975 15.36449515353834
STARLINK-1152,45096,53.0327,0.0003525,15.51210399,410.79700909514304,415.584895301442,1 45096U 20006BE  26177.92985814  .00071829  00000+0  12037-2 0  9992,2 45096  53.0327  46.1597 0003525 157.8386 202.2775 15.51210399354475
STARLINK-1184,45098,53.0497,0.0005157,15.15097823,517.1238730089062,524.2393145065089,1 45098U 20006BG  26177.80942588  .00019239  00000+0  10287-2 0  9994,2 45098  53.0497 110.6954 0005157  91.7442 268.4141 15.15097823353555
STARLINK-1193,45100,53.0466,0.0004008,15.69878743,356.54357352758143,361.94425806968593,1 45100U 20006BJ  26177.94702805  .00060667  00000+0  49825-3 0  9991,2 45100  53.0466  55.3122 0004008  44.3495 315.7842 15.69878743354342
STARLINK-1143,45179,53.0296,0.0006625,15.97615739,276.6241459818975,285.44755000548867,1 45179U 20012B   26178.00003472  .00252655  36940-4  55572-3 0  9999,2 45179  53.0296 142.6521 0006625  62.0079 354.7549 15.97615739  6047
STARLINK-1202,45183,53.1543,0.0003338,15.36288799,454.81348355910905,459.3766844984066,1 45183U 20012F   26177.61633293  .00037443  00000+0  10486-2 0  9993,2 45183  53.1543 251.6680 0003338 331.5719  28.5101 15.36288799351653
STARLINK-1216,45185,53.1559,0.0003478,15.36713784,453.4579614093818,458.21167220515235,1 45185U 20012H   26177.91644372  .00045397  00000+0  12506-2 0  9990,2 45185  53.1559 250.0732 0003478 329.1598  30.9201 15.36713784351640
STARLINK-1225,45187,53.156,0.0003842,15.36730928,453.1583970610036,458.40958194933955,1 45187U 20012K   26177.91484427  .00046170  00000+0  12708-2 0  9999,2 45187  53.1560 250.5410 0003842 332.5052  27.5748 15.36730928351681
STARLINK-1230,45189,53.1553,0.0003692,15.3655471,453.7831965389869,458.82974959950116,1 45189U 20012M   26177.92795589  .00045813  00000+0  12683-2 0  9991,2 45189  53.1553 250.5715 0003692 331.9379  28.1425 15.36554710348915
